<?xml version="1.0" encoding="UTF-8"?>
<kml xmlns="http://www.opengis.net/kml/2.2" xmlns:gx="http://www.google.com/kml/ext/2.2" xmlns:kml="http://www.opengis.net/kml/2.2" xmlns:atom="http://www.w3.org/2005/Atom">
<Document>
	<name>1371_37158.kml</name>
  <description></description>
	<open>1</open>
	<StyleMap id="m_ylw-pushpin0">
		<Pair>
			<key>normal</key>
			<styleUrl>#s_ylw-pushpin0</styleUrl>
		</Pair>
		<Pair>
			<key>highlight</key>
			<styleUrl>#s_ylw-pushpin_hl0</styleUrl>
		</Pair>
	</StyleMap>
	<Style id="s_ylw-pushpin_hl0">
		<IconStyle>
			<scale>1.3</scale>
			<Icon>
				<href>http://maps.google.com/mapfiles/kml/pushpin/ylw-pushpin.png</href>
			</Icon>
			<hotSpot x="20" y="2" xunits="pixels" yunits="pixels"/>
		</IconStyle>
	</Style>
	<Style id="s_ylw-pushpin">
		<IconStyle>
			<scale>1.1</scale>
			<Icon>
				<href>http://maps.google.com/mapfiles/kml/pushpin/ylw-pushpin.png</href>
			</Icon>
			<hotSpot x="20" y="2" xunits="pixels" yunits="pixels"/>
		</IconStyle>
		<LineStyle>
			<color>FF006CEF</color>
			<width>2</width>
		</LineStyle>
    <PolyStyle>
			<fill>0</fill>
		</PolyStyle>
	</Style>
	<Style id="s_ylw-pushpin_hl">
		<IconStyle>
			<scale>1.3</scale>
			<Icon>
				<href>http://maps.google.com/mapfiles/kml/pushpin/ylw-pushpin.png</href>
			</Icon>
			<hotSpot x="20" y="2" xunits="pixels" yunits="pixels"/>
		</IconStyle>
		<LineStyle>
			<color>FF006CEF</color>
			<width>2</width>
		</LineStyle>
    <PolyStyle>
			<fill>0</fill>
		</PolyStyle>
	</Style>
	<Style id="s_ylw-pushpin0">
		<IconStyle>
			<scale>1.1</scale>
			<Icon>
				<href>http://maps.google.com/mapfiles/kml/pushpin/ylw-pushpin.png</href>
			</Icon>
			<hotSpot x="20" y="2" xunits="pixels" yunits="pixels"/>
		</IconStyle>
	</Style>
	<StyleMap id="m_ylw-pushpin">
		<Pair>
			<key>normal</key>
			<styleUrl>#s_ylw-pushpin</styleUrl>
		</Pair>
		<Pair>
			<key>highlight</key>
			<styleUrl>#s_ylw-pushpin_hl</styleUrl>
		</Pair>
	</StyleMap>
	<Placemark>
		<name>1371_37158</name>
    <description></description>
		<styleUrl>#m_ylw-pushpin</styleUrl>
		<LineString>
			<tessellate>1</tessellate>
			<coordinates>
				57.9772942364542,23.672567438002257,0 57.97730070975633,23.673333218388045,0 57.97841043543438,23.673627527668554,0 57.98022733473183,23.674109470476385,0 57.98073762796628,23.673091863763744,0 57.978582461643185,23.67250981945352,0 57.978503593646565,23.672730606920023,0 57.978298537948774,23.67269044382774,0 57.97829074828446,23.67272427254776,0 57.9772942364542,23.672567438002257,0 
			</coordinates>
		</LineString>
	</Placemark>
	<Placemark>
	<name>1</name>
	<styleUrl>#m_ylw-pushpin0</styleUrl>
	<Point>
		<gx:drawOrder>1</gx:drawOrder>
		<coordinates>57.9772942364542,23.672567438002257,0 </coordinates>
	</Point>
</Placemark><Placemark>
	<name>2</name>
	<styleUrl>#m_ylw-pushpin0</styleUrl>
	<Point>
		<gx:drawOrder>1</gx:drawOrder>
		<coordinates>57.97730070975633,23.673333218388045,0 </coordinates>
	</Point>
</Placemark><Placemark>
	<name>3</name>
	<styleUrl>#m_ylw-pushpin0</styleUrl>
	<Point>
		<gx:drawOrder>1</gx:drawOrder>
		<coordinates>57.97841043543438,23.673627527668554,0 </coordinates>
	</Point>
</Placemark><Placemark>
	<name>4</name>
	<styleUrl>#m_ylw-pushpin0</styleUrl>
	<Point>
		<gx:drawOrder>1</gx:drawOrder>
		<coordinates>57.98022733473183,23.674109470476385,0 </coordinates>
	</Point>
</Placemark><Placemark>
	<name>5</name>
	<styleUrl>#m_ylw-pushpin0</styleUrl>
	<Point>
		<gx:drawOrder>1</gx:drawOrder>
		<coordinates>57.98073762796628,23.673091863763744,0 </coordinates>
	</Point>
</Placemark><Placemark>
	<name>6</name>
	<styleUrl>#m_ylw-pushpin0</styleUrl>
	<Point>
		<gx:drawOrder>1</gx:drawOrder>
		<coordinates>57.978582461643185,23.67250981945352,0 </coordinates>
	</Point>
</Placemark><Placemark>
	<name>7</name>
	<styleUrl>#m_ylw-pushpin0</styleUrl>
	<Point>
		<gx:drawOrder>1</gx:drawOrder>
		<coordinates>57.978503593646565,23.672730606920023,0 </coordinates>
	</Point>
</Placemark><Placemark>
	<name>8</name>
	<styleUrl>#m_ylw-pushpin0</styleUrl>
	<Point>
		<gx:drawOrder>1</gx:drawOrder>
		<coordinates>57.978298537948774,23.67269044382774,0 </coordinates>
	</Point>
</Placemark><Placemark>
	<name>9</name>
	<styleUrl>#m_ylw-pushpin0</styleUrl>
	<Point>
		<gx:drawOrder>1</gx:drawOrder>
		<coordinates>57.97829074828446,23.67272427254776,0 </coordinates>
	</Point>
</Placemark>
</Document>
</kml>
