<?xml version="1.0" encoding="UTF-8"?>
<kml xmlns="http://www.opengis.net/kml/2.2" xmlns:gx="http://www.google.com/kml/ext/2.2" xmlns:kml="http://www.opengis.net/kml/2.2" xmlns:atom="http://www.w3.org/2005/Atom">
<Document>
	<name>35_2500.kml</name>
  <description></description>
	<open>1</open>
	<StyleMap id="m_ylw-pushpin0">
		<Pair>
			<key>normal</key>
			<styleUrl>#s_ylw-pushpin0</styleUrl>
		</Pair>
		<Pair>
			<key>highlight</key>
			<styleUrl>#s_ylw-pushpin_hl0</styleUrl>
		</Pair>
	</StyleMap>
	<Style id="s_ylw-pushpin_hl0">
		<IconStyle>
			<scale>1.3</scale>
			<Icon>
				<href>http://maps.google.com/mapfiles/kml/pushpin/ylw-pushpin.png</href>
			</Icon>
			<hotSpot x="20" y="2" xunits="pixels" yunits="pixels"/>
		</IconStyle>
	</Style>
	<Style id="s_ylw-pushpin">
		<IconStyle>
			<scale>1.1</scale>
			<Icon>
				<href>http://maps.google.com/mapfiles/kml/pushpin/ylw-pushpin.png</href>
			</Icon>
			<hotSpot x="20" y="2" xunits="pixels" yunits="pixels"/>
		</IconStyle>
		<LineStyle>
			<color>FF006CEF</color>
			<width>2</width>
		</LineStyle>
    <PolyStyle>
			<fill>0</fill>
		</PolyStyle>
	</Style>
	<Style id="s_ylw-pushpin_hl">
		<IconStyle>
			<scale>1.3</scale>
			<Icon>
				<href>http://maps.google.com/mapfiles/kml/pushpin/ylw-pushpin.png</href>
			</Icon>
			<hotSpot x="20" y="2" xunits="pixels" yunits="pixels"/>
		</IconStyle>
		<LineStyle>
			<color>FF006CEF</color>
			<width>2</width>
		</LineStyle>
    <PolyStyle>
			<fill>0</fill>
		</PolyStyle>
	</Style>
	<Style id="s_ylw-pushpin0">
		<IconStyle>
			<scale>1.1</scale>
			<Icon>
				<href>http://maps.google.com/mapfiles/kml/pushpin/ylw-pushpin.png</href>
			</Icon>
			<hotSpot x="20" y="2" xunits="pixels" yunits="pixels"/>
		</IconStyle>
	</Style>
	<StyleMap id="m_ylw-pushpin">
		<Pair>
			<key>normal</key>
			<styleUrl>#s_ylw-pushpin</styleUrl>
		</Pair>
		<Pair>
			<key>highlight</key>
			<styleUrl>#s_ylw-pushpin_hl</styleUrl>
		</Pair>
	</StyleMap>
	<Placemark>
		<name>35_2500</name>
    <description></description>
		<styleUrl>#m_ylw-pushpin</styleUrl>
		<LineString>
			<tessellate>1</tessellate>
			<coordinates>
				54.04623044600168,17.01453023767468,0 54.046238172578775,17.01451630901603,0 54.04640977087919,17.014206904107695,0 54.046451513827236,17.014131635407562,0 54.046603620280116,17.014209719819505,0 54.04686581685143,17.01434436575778,0 54.04664475558878,17.01474293976443,0 54.046237894057754,17.01453405700076,0 54.04623044600168,17.01453023767468,0 54.04623044600168,17.01453023767468,0 
			</coordinates>
		</LineString>
	</Placemark>
	<Placemark>
	<name>1</name>
	<styleUrl>#m_ylw-pushpin0</styleUrl>
	<Point>
		<gx:drawOrder>1</gx:drawOrder>
		<coordinates>54.04623044600168,17.01453023767468,0 </coordinates>
	</Point>
</Placemark><Placemark>
	<name>2</name>
	<styleUrl>#m_ylw-pushpin0</styleUrl>
	<Point>
		<gx:drawOrder>1</gx:drawOrder>
		<coordinates>54.046238172578775,17.01451630901603,0 </coordinates>
	</Point>
</Placemark><Placemark>
	<name>3</name>
	<styleUrl>#m_ylw-pushpin0</styleUrl>
	<Point>
		<gx:drawOrder>1</gx:drawOrder>
		<coordinates>54.04640977087919,17.014206904107695,0 </coordinates>
	</Point>
</Placemark><Placemark>
	<name>4</name>
	<styleUrl>#m_ylw-pushpin0</styleUrl>
	<Point>
		<gx:drawOrder>1</gx:drawOrder>
		<coordinates>54.046451513827236,17.014131635407562,0 </coordinates>
	</Point>
</Placemark><Placemark>
	<name>5</name>
	<styleUrl>#m_ylw-pushpin0</styleUrl>
	<Point>
		<gx:drawOrder>1</gx:drawOrder>
		<coordinates>54.046603620280116,17.014209719819505,0 </coordinates>
	</Point>
</Placemark><Placemark>
	<name>6</name>
	<styleUrl>#m_ylw-pushpin0</styleUrl>
	<Point>
		<gx:drawOrder>1</gx:drawOrder>
		<coordinates>54.04686581685143,17.01434436575778,0 </coordinates>
	</Point>
</Placemark><Placemark>
	<name>7</name>
	<styleUrl>#m_ylw-pushpin0</styleUrl>
	<Point>
		<gx:drawOrder>1</gx:drawOrder>
		<coordinates>54.04664475558878,17.01474293976443,0 </coordinates>
	</Point>
</Placemark><Placemark>
	<name>8</name>
	<styleUrl>#m_ylw-pushpin0</styleUrl>
	<Point>
		<gx:drawOrder>1</gx:drawOrder>
		<coordinates>54.046237894057754,17.01453405700076,0 </coordinates>
	</Point>
</Placemark><Placemark>
	<name>9</name>
	<styleUrl>#m_ylw-pushpin0</styleUrl>
	<Point>
		<gx:drawOrder>1</gx:drawOrder>
		<coordinates>54.04623044600168,17.01453023767468,0 </coordinates>
	</Point>
</Placemark>
</Document>
</kml>
