<?xml version="1.0" encoding="UTF-8"?>
<kml xmlns="http://www.opengis.net/kml/2.2" xmlns:gx="http://www.google.com/kml/ext/2.2" xmlns:kml="http://www.opengis.net/kml/2.2" xmlns:atom="http://www.w3.org/2005/Atom">
<Document>
	<name>63D_850.kml</name>
  <description></description>
	<open>1</open>
	<StyleMap id="m_ylw-pushpin0">
		<Pair>
			<key>normal</key>
			<styleUrl>#s_ylw-pushpin0</styleUrl>
		</Pair>
		<Pair>
			<key>highlight</key>
			<styleUrl>#s_ylw-pushpin_hl0</styleUrl>
		</Pair>
	</StyleMap>
	<Style id="s_ylw-pushpin_hl0">
		<IconStyle>
			<scale>1.3</scale>
			<Icon>
				<href>http://maps.google.com/mapfiles/kml/pushpin/ylw-pushpin.png</href>
			</Icon>
			<hotSpot x="20" y="2" xunits="pixels" yunits="pixels"/>
		</IconStyle>
	</Style>
	<Style id="s_ylw-pushpin">
		<IconStyle>
			<scale>1.1</scale>
			<Icon>
				<href>http://maps.google.com/mapfiles/kml/pushpin/ylw-pushpin.png</href>
			</Icon>
			<hotSpot x="20" y="2" xunits="pixels" yunits="pixels"/>
		</IconStyle>
		<LineStyle>
			<color>FF006CEF</color>
			<width>2</width>
		</LineStyle>
    <PolyStyle>
			<fill>0</fill>
		</PolyStyle>
	</Style>
	<Style id="s_ylw-pushpin_hl">
		<IconStyle>
			<scale>1.3</scale>
			<Icon>
				<href>http://maps.google.com/mapfiles/kml/pushpin/ylw-pushpin.png</href>
			</Icon>
			<hotSpot x="20" y="2" xunits="pixels" yunits="pixels"/>
		</IconStyle>
		<LineStyle>
			<color>FF006CEF</color>
			<width>2</width>
		</LineStyle>
    <PolyStyle>
			<fill>0</fill>
		</PolyStyle>
	</Style>
	<Style id="s_ylw-pushpin0">
		<IconStyle>
			<scale>1.1</scale>
			<Icon>
				<href>http://maps.google.com/mapfiles/kml/pushpin/ylw-pushpin.png</href>
			</Icon>
			<hotSpot x="20" y="2" xunits="pixels" yunits="pixels"/>
		</IconStyle>
	</Style>
	<StyleMap id="m_ylw-pushpin">
		<Pair>
			<key>normal</key>
			<styleUrl>#s_ylw-pushpin</styleUrl>
		</Pair>
		<Pair>
			<key>highlight</key>
			<styleUrl>#s_ylw-pushpin_hl</styleUrl>
		</Pair>
	</StyleMap>
	<Placemark>
		<name>63D_850</name>
    <description></description>
		<styleUrl>#m_ylw-pushpin</styleUrl>
		<LineString>
			<tessellate>1</tessellate>
			<coordinates>
				54.11049837631646,17.00342682139675,0 54.11050233925932,17.003474375243044,0 54.11051645433414,17.003679916887467,0 54.11079071508475,17.003683811803224,0 54.11079459254036,17.003431028068675,0 54.11049837631646,17.00342682139675,0 
			</coordinates>
		</LineString>
	</Placemark>
	<Placemark>
	<name>1</name>
	<styleUrl>#m_ylw-pushpin0</styleUrl>
	<Point>
		<gx:drawOrder>1</gx:drawOrder>
		<coordinates>54.11049837631646,17.00342682139675,0 </coordinates>
	</Point>
</Placemark><Placemark>
	<name>2</name>
	<styleUrl>#m_ylw-pushpin0</styleUrl>
	<Point>
		<gx:drawOrder>1</gx:drawOrder>
		<coordinates>54.11050233925932,17.003474375243044,0 </coordinates>
	</Point>
</Placemark><Placemark>
	<name>3</name>
	<styleUrl>#m_ylw-pushpin0</styleUrl>
	<Point>
		<gx:drawOrder>1</gx:drawOrder>
		<coordinates>54.11051645433414,17.003679916887467,0 </coordinates>
	</Point>
</Placemark><Placemark>
	<name>4</name>
	<styleUrl>#m_ylw-pushpin0</styleUrl>
	<Point>
		<gx:drawOrder>1</gx:drawOrder>
		<coordinates>54.11079071508475,17.003683811803224,0 </coordinates>
	</Point>
</Placemark><Placemark>
	<name>5</name>
	<styleUrl>#m_ylw-pushpin0</styleUrl>
	<Point>
		<gx:drawOrder>1</gx:drawOrder>
		<coordinates>54.11079459254036,17.003431028068675,0 </coordinates>
	</Point>
</Placemark>
</Document>
</kml>
