<?xml version="1.0" encoding="UTF-8"?>
<kml xmlns="http://www.opengis.net/kml/2.2" xmlns:gx="http://www.google.com/kml/ext/2.2" xmlns:kml="http://www.opengis.net/kml/2.2" xmlns:atom="http://www.w3.org/2005/Atom">
<Document>
	<name>731_787.kml</name>
  <description></description>
	<open>1</open>
	<StyleMap id="m_ylw-pushpin0">
		<Pair>
			<key>normal</key>
			<styleUrl>#s_ylw-pushpin0</styleUrl>
		</Pair>
		<Pair>
			<key>highlight</key>
			<styleUrl>#s_ylw-pushpin_hl0</styleUrl>
		</Pair>
	</StyleMap>
	<Style id="s_ylw-pushpin_hl0">
		<IconStyle>
			<scale>1.3</scale>
			<Icon>
				<href>http://maps.google.com/mapfiles/kml/pushpin/ylw-pushpin.png</href>
			</Icon>
			<hotSpot x="20" y="2" xunits="pixels" yunits="pixels"/>
		</IconStyle>
	</Style>
	<Style id="s_ylw-pushpin">
		<IconStyle>
			<scale>1.1</scale>
			<Icon>
				<href>http://maps.google.com/mapfiles/kml/pushpin/ylw-pushpin.png</href>
			</Icon>
			<hotSpot x="20" y="2" xunits="pixels" yunits="pixels"/>
		</IconStyle>
		<LineStyle>
			<color>FF006CEF</color>
			<width>2</width>
		</LineStyle>
    <PolyStyle>
			<fill>0</fill>
		</PolyStyle>
	</Style>
	<Style id="s_ylw-pushpin_hl">
		<IconStyle>
			<scale>1.3</scale>
			<Icon>
				<href>http://maps.google.com/mapfiles/kml/pushpin/ylw-pushpin.png</href>
			</Icon>
			<hotSpot x="20" y="2" xunits="pixels" yunits="pixels"/>
		</IconStyle>
		<LineStyle>
			<color>FF006CEF</color>
			<width>2</width>
		</LineStyle>
    <PolyStyle>
			<fill>0</fill>
		</PolyStyle>
	</Style>
	<Style id="s_ylw-pushpin0">
		<IconStyle>
			<scale>1.1</scale>
			<Icon>
				<href>http://maps.google.com/mapfiles/kml/pushpin/ylw-pushpin.png</href>
			</Icon>
			<hotSpot x="20" y="2" xunits="pixels" yunits="pixels"/>
		</IconStyle>
	</Style>
	<StyleMap id="m_ylw-pushpin">
		<Pair>
			<key>normal</key>
			<styleUrl>#s_ylw-pushpin</styleUrl>
		</Pair>
		<Pair>
			<key>highlight</key>
			<styleUrl>#s_ylw-pushpin_hl</styleUrl>
		</Pair>
	</StyleMap>
	<Placemark>
		<name>731_787</name>
    <description></description>
		<styleUrl>#m_ylw-pushpin</styleUrl>
		<LineString>
			<tessellate>1</tessellate>
			<coordinates>
				54.01615335661821,17.00984959561629,0 54.01627849845595,17.00991183771789,0 54.01646823869143,17.009853583113543,0 54.01653292929733,17.009733178085746,0 54.016282644279734,17.00960878441294,0 54.01615335661821,17.00984959561629,0 
			</coordinates>
		</LineString>
	</Placemark>
	<Placemark>
	<name>1</name>
	<styleUrl>#m_ylw-pushpin0</styleUrl>
	<Point>
		<gx:drawOrder>1</gx:drawOrder>
		<coordinates>54.01615335661821,17.00984959561629,0 </coordinates>
	</Point>
</Placemark><Placemark>
	<name>2</name>
	<styleUrl>#m_ylw-pushpin0</styleUrl>
	<Point>
		<gx:drawOrder>1</gx:drawOrder>
		<coordinates>54.01627849845595,17.00991183771789,0 </coordinates>
	</Point>
</Placemark><Placemark>
	<name>3</name>
	<styleUrl>#m_ylw-pushpin0</styleUrl>
	<Point>
		<gx:drawOrder>1</gx:drawOrder>
		<coordinates>54.01646823869143,17.009853583113543,0 </coordinates>
	</Point>
</Placemark><Placemark>
	<name>4</name>
	<styleUrl>#m_ylw-pushpin0</styleUrl>
	<Point>
		<gx:drawOrder>1</gx:drawOrder>
		<coordinates>54.01653292929733,17.009733178085746,0 </coordinates>
	</Point>
</Placemark><Placemark>
	<name>5</name>
	<styleUrl>#m_ylw-pushpin0</styleUrl>
	<Point>
		<gx:drawOrder>1</gx:drawOrder>
		<coordinates>54.016282644279734,17.00960878441294,0 </coordinates>
	</Point>
</Placemark>
</Document>
</kml>
