<kml xmlns="http://www.opengis.net/kml/2.2" xmlns:gx="http://www.google.com/kml/ext/2.2" xmlns:xsi="http://www.w3.org/2001/XMLSchema-instance" xsi:schemaLocation="http://www.opengis.net/kml/2.2 https://developers.google.com/kml/schema/kml22gx.xsd"><Document><Placemark><name>1</name><description></description><Style><LineStyle><color>ff006cef</color><width>2</width></LineStyle></Style><ExtendedData><Data name="i-map-font-string"><value><![CDATA[ bold 16px Arial]]></value></Data><Data name="i-map-text-anchor"><value>left</value></Data><Data name="i-map-text-bg"><value>transparent</value></Data><Data name="i-map-text-indent"><value>9.999999999999996</value></Data><Data name="i-map-text-padding"><value>0</value></Data><Data name="i-map-text-scale"><value>0.8</value></Data><Data name="i-map-text-stroke-color"/></ExtendedData><LineString><tessellate>1</tessellate><coordinates>54.048966975078955,17.044354404326185,0 54.04913271689193,17.044439168044335,0 54.049044439784275,17.04459882973103,0 54.04887869788988,17.04451406592179,0 54.048966975078955,17.044354404326185,0 54.048966975078955,17.044354404326185,0</coordinates></LineString></Placemark><Placemark><name>1</name><Style><IconStyle><scale>1.1</scale><Icon><href>https://maps.google.com/mapfiles/kml/pushpin/ylw-pushpin.png</href><gx:w>64</gx:w><gx:h>64</gx:h></Icon><hotSpot x="20" y="2" xunits="pixels" yunits="pixels"/></IconStyle><LabelStyle><color>ffffffff</color><scale>0.8</scale></LabelStyle></Style><ExtendedData><Data name="i-map-font-string"><value><![CDATA[ bold 16px Arial]]></value></Data><Data name="i-map-text-anchor"><value>left</value></Data><Data name="i-map-text-bg"><value>transparent</value></Data><Data name="i-map-text-indent"><value>9.999999999999996</value></Data><Data name="i-map-text-padding"><value>0</value></Data><Data name="i-map-text-scale"><value>0.8</value></Data><Data name="i-map-text-stroke-color"/></ExtendedData><Point><coordinates>54.048966975078955,17.044354404326185,0</coordinates></Point></Placemark><Placemark><name>2</name><Style><IconStyle><scale>1.1</scale><Icon><href>https://maps.google.com/mapfiles/kml/pushpin/ylw-pushpin.png</href><gx:w>64</gx:w><gx:h>64</gx:h></Icon><hotSpot x="20" y="2" xunits="pixels" yunits="pixels"/></IconStyle><LabelStyle><color>ffffffff</color><scale>0.8</scale></LabelStyle></Style><ExtendedData><Data name="i-map-font-string"><value><![CDATA[ bold 16px Arial]]></value></Data><Data name="i-map-text-anchor"><value>left</value></Data><Data name="i-map-text-bg"><value>transparent</value></Data><Data name="i-map-text-indent"><value>9.999999999999996</value></Data><Data name="i-map-text-padding"><value>0</value></Data><Data name="i-map-text-scale"><value>0.8</value></Data><Data name="i-map-text-stroke-color"/></ExtendedData><Point><coordinates>54.04913271689193,17.044439168044335,0</coordinates></Point></Placemark><Placemark><name>3</name><Style><IconStyle><scale>1.1</scale><Icon><href>https://maps.google.com/mapfiles/kml/pushpin/ylw-pushpin.png</href><gx:w>64</gx:w><gx:h>64</gx:h></Icon><hotSpot x="20" y="2" xunits="pixels" yunits="pixels"/></IconStyle><LabelStyle><color>ffffffff</color><scale>0.8</scale></LabelStyle></Style><ExtendedData><Data name="i-map-font-string"><value><![CDATA[ bold 16px Arial]]></value></Data><Data name="i-map-text-anchor"><value>left</value></Data><Data name="i-map-text-bg"><value>transparent</value></Data><Data name="i-map-text-indent"><value>9.999999999999996</value></Data><Data name="i-map-text-padding"><value>0</value></Data><Data name="i-map-text-scale"><value>0.8</value></Data><Data name="i-map-text-stroke-color"/></ExtendedData><Point><coordinates>54.049044439784275,17.04459882973103,0</coordinates></Point></Placemark><Placemark><name>4</name><Style><IconStyle><scale>1.1</scale><Icon><href>https://maps.google.com/mapfiles/kml/pushpin/ylw-pushpin.png</href><gx:w>64</gx:w><gx:h>64</gx:h></Icon><hotSpot x="20" y="2" xunits="pixels" yunits="pixels"/></IconStyle><LabelStyle><color>ffffffff</color><scale>0.8</scale></LabelStyle></Style><ExtendedData><Data name="i-map-font-string"><value><![CDATA[ bold 16px Arial]]></value></Data><Data name="i-map-text-anchor"><value>left</value></Data><Data name="i-map-text-bg"><value>transparent</value></Data><Data name="i-map-text-indent"><value>9.999999999999996</value></Data><Data name="i-map-text-padding"><value>0</value></Data><Data name="i-map-text-scale"><value>0.8</value></Data><Data name="i-map-text-stroke-color"/></ExtendedData><Point><coordinates>54.04887869788988,17.04451406592179,0</coordinates></Point></Placemark><Placemark><name>5</name><Style><IconStyle><scale>1.1</scale><Icon><href>https://maps.google.com/mapfiles/kml/pushpin/ylw-pushpin.png</href><gx:w>64</gx:w><gx:h>64</gx:h></Icon><hotSpot x="20" y="2" xunits="pixels" yunits="pixels"/></IconStyle><LabelStyle><color>ffffffff</color><scale>0.8</scale></LabelStyle></Style><ExtendedData><Data name="i-map-font-string"><value><![CDATA[ bold 16px Arial]]></value></Data><Data name="i-map-text-anchor"><value>left</value></Data><Data name="i-map-text-bg"><value>transparent</value></Data><Data name="i-map-text-indent"><value>9.999999999999996</value></Data><Data name="i-map-text-padding"><value>0</value></Data><Data name="i-map-text-scale"><value>0.8</value></Data><Data name="i-map-text-stroke-color"/></ExtendedData><Point><coordinates>54.048966975078955,17.044354404326185,0</coordinates></Point></Placemark><Placemark><name>1</name><description></description><Style><LineStyle><color>ff006cef</color><width>2</width></LineStyle></Style><ExtendedData><Data name="i-map-font-string"><value><![CDATA[ bold 16px Arial]]></value></Data><Data name="i-map-text-anchor"><value>left</value></Data><Data name="i-map-text-bg"><value>transparent</value></Data><Data name="i-map-text-indent"><value>9.999999999999996</value></Data><Data name="i-map-text-padding"><value>0</value></Data><Data name="i-map-text-scale"><value>0.8</value></Data><Data name="i-map-text-stroke-color"/></ExtendedData><LineString><tessellate>1</tessellate><coordinates>54.048966975078955,17.044354404326185,0 54.04913271689193,17.044439168044335,0 54.049044439784275,17.04459882973103,0 54.04887869788988,17.04451406592179,0 54.048966975078955,17.044354404326185,0 54.048966975078955,17.044354404326185,0</coordinates></LineString></Placemark><Placemark><name>1</name><Style><IconStyle><scale>1.1</scale><Icon><href>https://maps.google.com/mapfiles/kml/pushpin/ylw-pushpin.png</href><gx:w>64</gx:w><gx:h>64</gx:h></Icon><hotSpot x="20" y="2" xunits="pixels" yunits="pixels"/></IconStyle><LabelStyle><color>ffffffff</color><scale>0.8</scale></LabelStyle></Style><ExtendedData><Data name="i-map-font-string"><value><![CDATA[ bold 16px Arial]]></value></Data><Data name="i-map-text-anchor"><value>left</value></Data><Data name="i-map-text-bg"><value>transparent</value></Data><Data name="i-map-text-indent"><value>9.999999999999996</value></Data><Data name="i-map-text-padding"><value>0</value></Data><Data name="i-map-text-scale"><value>0.8</value></Data><Data name="i-map-text-stroke-color"/></ExtendedData><Point><coordinates>54.048966975078955,17.044354404326185,0</coordinates></Point></Placemark><Placemark><name>2</name><Style><IconStyle><scale>1.1</scale><Icon><href>https://maps.google.com/mapfiles/kml/pushpin/ylw-pushpin.png</href><gx:w>64</gx:w><gx:h>64</gx:h></Icon><hotSpot x="20" y="2" xunits="pixels" yunits="pixels"/></IconStyle><LabelStyle><color>ffffffff</color><scale>0.8</scale></LabelStyle></Style><ExtendedData><Data name="i-map-font-string"><value><![CDATA[ bold 16px Arial]]></value></Data><Data name="i-map-text-anchor"><value>left</value></Data><Data name="i-map-text-bg"><value>transparent</value></Data><Data name="i-map-text-indent"><value>9.999999999999996</value></Data><Data name="i-map-text-padding"><value>0</value></Data><Data name="i-map-text-scale"><value>0.8</value></Data><Data name="i-map-text-stroke-color"/></ExtendedData><Point><coordinates>54.04913271689193,17.044439168044335,0</coordinates></Point></Placemark><Placemark><name>3</name><Style><IconStyle><scale>1.1</scale><Icon><href>https://maps.google.com/mapfiles/kml/pushpin/ylw-pushpin.png</href><gx:w>64</gx:w><gx:h>64</gx:h></Icon><hotSpot x="20" y="2" xunits="pixels" yunits="pixels"/></IconStyle><LabelStyle><color>ffffffff</color><scale>0.8</scale></LabelStyle></Style><ExtendedData><Data name="i-map-font-string"><value><![CDATA[ bold 16px Arial]]></value></Data><Data name="i-map-text-anchor"><value>left</value></Data><Data name="i-map-text-bg"><value>transparent</value></Data><Data name="i-map-text-indent"><value>9.999999999999996</value></Data><Data name="i-map-text-padding"><value>0</value></Data><Data name="i-map-text-scale"><value>0.8</value></Data><Data name="i-map-text-stroke-color"/></ExtendedData><Point><coordinates>54.049044439784275,17.04459882973103,0</coordinates></Point></Placemark><Placemark><name>4</name><Style><IconStyle><scale>1.1</scale><Icon><href>https://maps.google.com/mapfiles/kml/pushpin/ylw-pushpin.png</href><gx:w>64</gx:w><gx:h>64</gx:h></Icon><hotSpot x="20" y="2" xunits="pixels" yunits="pixels"/></IconStyle><LabelStyle><color>ffffffff</color><scale>0.8</scale></LabelStyle></Style><ExtendedData><Data name="i-map-font-string"><value><![CDATA[ bold 16px Arial]]></value></Data><Data name="i-map-text-anchor"><value>left</value></Data><Data name="i-map-text-bg"><value>transparent</value></Data><Data name="i-map-text-indent"><value>9.999999999999996</value></Data><Data name="i-map-text-padding"><value>0</value></Data><Data name="i-map-text-scale"><value>0.8</value></Data><Data name="i-map-text-stroke-color"/></ExtendedData><Point><coordinates>54.04887869788988,17.04451406592179,0</coordinates></Point></Placemark><Placemark><name>5</name><Style><IconStyle><scale>1.1</scale><Icon><href>https://maps.google.com/mapfiles/kml/pushpin/ylw-pushpin.png</href><gx:w>64</gx:w><gx:h>64</gx:h></Icon><hotSpot x="20" y="2" xunits="pixels" yunits="pixels"/></IconStyle><LabelStyle><color>ffffffff</color><scale>0.8</scale></LabelStyle></Style><ExtendedData><Data name="i-map-font-string"><value><![CDATA[ bold 16px Arial]]></value></Data><Data name="i-map-text-anchor"><value>left</value></Data><Data name="i-map-text-bg"><value>transparent</value></Data><Data name="i-map-text-indent"><value>9.999999999999996</value></Data><Data name="i-map-text-padding"><value>0</value></Data><Data name="i-map-text-scale"><value>0.8</value></Data><Data name="i-map-text-stroke-color"/></ExtendedData><Point><coordinates>54.048966975078955,17.044354404326185,0</coordinates></Point></Placemark><Placemark><name>2</name><description></description><Style><LineStyle><color>ff006cef</color><width>2</width></LineStyle></Style><ExtendedData><Data name="i-map-font-string"><value><![CDATA[ bold 16px Arial]]></value></Data><Data name="i-map-text-anchor"><value>left</value></Data><Data name="i-map-text-bg"><value>transparent</value></Data><Data name="i-map-text-indent"><value>9.999999999999996</value></Data><Data name="i-map-text-padding"><value>0</value></Data><Data name="i-map-text-scale"><value>0.8</value></Data><Data name="i-map-text-stroke-color"/></ExtendedData><LineString><tessellate>1</tessellate><coordinates>54.0490552521111,17.044194741762638,0 54.04922099385159,17.044279505394115,0 54.04913271689193,17.044439168044335,0 54.048966975078955,17.044354404326185,0 54.0490552521111,17.044194741762638,0 54.0490552521111,17.044194741762638,0</coordinates></LineString></Placemark><Placemark><name>1</name><Style><IconStyle><scale>1.1</scale><Icon><href>https://maps.google.com/mapfiles/kml/pushpin/ylw-pushpin.png</href><gx:w>64</gx:w><gx:h>64</gx:h></Icon><hotSpot x="20" y="2" xunits="pixels" yunits="pixels"/></IconStyle><LabelStyle><color>ffffffff</color><scale>0.8</scale></LabelStyle></Style><ExtendedData><Data name="i-map-font-string"><value><![CDATA[ bold 16px Arial]]></value></Data><Data name="i-map-text-anchor"><value>left</value></Data><Data name="i-map-text-bg"><value>transparent</value></Data><Data name="i-map-text-indent"><value>9.999999999999996</value></Data><Data name="i-map-text-padding"><value>0</value></Data><Data name="i-map-text-scale"><value>0.8</value></Data><Data name="i-map-text-stroke-color"/></ExtendedData><Point><coordinates>54.0490552521111,17.044194741762638,0</coordinates></Point></Placemark><Placemark><name>2</name><Style><IconStyle><scale>1.1</scale><Icon><href>https://maps.google.com/mapfiles/kml/pushpin/ylw-pushpin.png</href><gx:w>64</gx:w><gx:h>64</gx:h></Icon><hotSpot x="20" y="2" xunits="pixels" yunits="pixels"/></IconStyle><LabelStyle><color>ffffffff</color><scale>0.8</scale></LabelStyle></Style><ExtendedData><Data name="i-map-font-string"><value><![CDATA[ bold 16px Arial]]></value></Data><Data name="i-map-text-anchor"><value>left</value></Data><Data name="i-map-text-bg"><value>transparent</value></Data><Data name="i-map-text-indent"><value>9.999999999999996</value></Data><Data name="i-map-text-padding"><value>0</value></Data><Data name="i-map-text-scale"><value>0.8</value></Data><Data name="i-map-text-stroke-color"/></ExtendedData><Point><coordinates>54.04922099385159,17.044279505394115,0</coordinates></Point></Placemark><Placemark><name>3</name><Style><IconStyle><scale>1.1</scale><Icon><href>https://maps.google.com/mapfiles/kml/pushpin/ylw-pushpin.png</href><gx:w>64</gx:w><gx:h>64</gx:h></Icon><hotSpot x="20" y="2" xunits="pixels" yunits="pixels"/></IconStyle><LabelStyle><color>ffffffff</color><scale>0.8</scale></LabelStyle></Style><ExtendedData><Data name="i-map-font-string"><value><![CDATA[ bold 16px Arial]]></value></Data><Data name="i-map-text-anchor"><value>left</value></Data><Data name="i-map-text-bg"><value>transparent</value></Data><Data name="i-map-text-indent"><value>9.999999999999996</value></Data><Data name="i-map-text-padding"><value>0</value></Data><Data name="i-map-text-scale"><value>0.8</value></Data><Data name="i-map-text-stroke-color"/></ExtendedData><Point><coordinates>54.04913271689193,17.044439168044335,0</coordinates></Point></Placemark><Placemark><name>4</name><Style><IconStyle><scale>1.1</scale><Icon><href>https://maps.google.com/mapfiles/kml/pushpin/ylw-pushpin.png</href><gx:w>64</gx:w><gx:h>64</gx:h></Icon><hotSpot x="20" y="2" xunits="pixels" yunits="pixels"/></IconStyle><LabelStyle><color>ffffffff</color><scale>0.8</scale></LabelStyle></Style><ExtendedData><Data name="i-map-font-string"><value><![CDATA[ bold 16px Arial]]></value></Data><Data name="i-map-text-anchor"><value>left</value></Data><Data name="i-map-text-bg"><value>transparent</value></Data><Data name="i-map-text-indent"><value>9.999999999999996</value></Data><Data name="i-map-text-padding"><value>0</value></Data><Data name="i-map-text-scale"><value>0.8</value></Data><Data name="i-map-text-stroke-color"/></ExtendedData><Point><coordinates>54.048966975078955,17.044354404326185,0</coordinates></Point></Placemark><Placemark><name>5</name><Style><IconStyle><scale>1.1</scale><Icon><href>https://maps.google.com/mapfiles/kml/pushpin/ylw-pushpin.png</href><gx:w>64</gx:w><gx:h>64</gx:h></Icon><hotSpot x="20" y="2" xunits="pixels" yunits="pixels"/></IconStyle><LabelStyle><color>ffffffff</color><scale>0.8</scale></LabelStyle></Style><ExtendedData><Data name="i-map-font-string"><value><![CDATA[ bold 16px Arial]]></value></Data><Data name="i-map-text-anchor"><value>left</value></Data><Data name="i-map-text-bg"><value>transparent</value></Data><Data name="i-map-text-indent"><value>9.999999999999996</value></Data><Data name="i-map-text-padding"><value>0</value></Data><Data name="i-map-text-scale"><value>0.8</value></Data><Data name="i-map-text-stroke-color"/></ExtendedData><Point><coordinates>54.0490552521111,17.044194741762638,0</coordinates></Point></Placemark></Document></kml>